{
  "type": "FeatureCollection",
  "features": [
    {
      "type": "Feature",
      "properties": {
        "norad_id": 44334,
        "name": "EUTELSAT 7C",
        "group": "eutelsat",
        "lat": 0.009374466029041264,
        "lon": -159.34873465520752,
        "alt_km": 35774.683228206304,
        "timestamp": "2025-12-09T07:41:32.875006+00:00",
        "meta_object_name": "EUTELSAT 7C",
        "meta_object_id": "2019-034B",
        "meta_epoch": "2025-12-08T13:37:59.577024",
        "meta_mean_motion": 1.00270644,
        "meta_eccentricity": 0.0003493,
        "meta_inclination": 0.0737,
        "meta_ra_of_asc_node": 179.6012,
        "meta_arg_of_pericenter": 58.7605,
        "meta_mean_anomaly": 50.69,
        "meta_ephemeris_type": 0,
        "meta_classification_type": "U",
        "meta_norad_cat_id": 44334,
        "meta_element_set_no": 999,
        "meta_rev_at_epoch": 492,
        "meta_bstar": 0,
        "meta_mean_motion_dot": 5e-07,
        "meta_mean_motion_ddot": 0,
        "tle_line1": "1 44334U 19034B   25342.56805066  .00000050  00000+0  00000+0 0  9990",
        "tle_line2": "2 44334   0.0737 179.6012 0003493  58.7605  50.6900  1.00270644  4922"
      },
      "geometry": {
        "type": "Point",
        "coordinates": [
          -159.34873465520752,
          0.009374466029041264
        ]
      }
    },
    {
      "type": "Feature",
      "properties": {
        "norad_id": 44624,
        "name": "EUTELSAT 5 WEST B",
        "group": "eutelsat",
        "lat": -0.03934705290387739,
        "lon": -171.3421053463892,
        "alt_km": 35781.23226048037,
        "timestamp": "2025-12-09T07:41:32.875018+00:00",
        "meta_object_name": "EUTELSAT 5 WEST B",
        "meta_object_id": "2019-067A",
        "meta_epoch": "2025-12-08T22:08:22.438752",
        "meta_mean_motion": 1.00270995,
        "meta_eccentricity": 0.00035282,
        "meta_inclination": 0.0644,
        "meta_ra_of_asc_node": 340.9663,
        "meta_arg_of_pericenter": 277.8642,
        "meta_mean_anomaly": 146.1846,
        "meta_ephemeris_type": 0,
        "meta_classification_type": "U",
        "meta_norad_cat_id": 44624,
        "meta_element_set_no": 999,
        "meta_rev_at_epoch": 2252,
        "meta_bstar": 0,
        "meta_mean_motion_dot": -4e-07,
        "meta_mean_motion_ddot": 0,
        "tle_line1": "1 44624U 19067A   25342.92248193 -.00000040  00000+0  00000+0 0  9990",
        "tle_line2": "2 44624   0.0644 340.9663 0003528 277.8642 146.1846  1.00270995 22525"
      },
      "geometry": {
        "type": "Point",
        "coordinates": [
          -171.3421053463892,
          -0.03934705290387739
        ]
      }
    },
    {
      "type": "Feature",
      "properties": {
        "norad_id": 45027,
        "name": "EUTELSAT KONNECT",
        "group": "eutelsat",
        "lat": 0.05408655497027551,
        "lon": -159.1193962583293,
        "alt_km": 35782.716701134705,
        "timestamp": "2025-12-09T07:41:32.875029+00:00",
        "meta_object_name": "EUTELSAT KONNECT",
        "meta_object_id": "2020-005B",
        "meta_epoch": "2025-12-08T15:20:57.216768",
        "meta_mean_motion": 1.00272826,
        "meta_eccentricity": 0.0001645,
        "meta_inclination": 0.0714,
        "meta_ra_of_asc_node": 97.9851,
        "meta_arg_of_pericenter": 167.2799,
        "meta_mean_anomaly": 49.8134,
        "meta_ephemeris_type": 0,
        "meta_classification_type": "U",
        "meta_norad_cat_id": 45027,
        "meta_element_set_no": 999,
        "meta_rev_at_epoch": 2242,
        "meta_bstar": 0,
        "meta_mean_motion_dot": 5.2e-07,
        "meta_mean_motion_ddot": 0,
        "tle_line1": "1 45027U 20005B   25342.63955112  .00000052  00000+0  00000+0 0  9998",
        "tle_line2": "2 45027   0.0714  97.9851 0001645 167.2799  49.8134  1.00272826 22425"
      },
      "geometry": {
        "type": "Point",
        "coordinates": [
          -159.1193962583293,
          0.05408655497027551
        ]
      }
    },
    {
      "type": "Feature",
      "properties": {
        "norad_id": 49056,
        "name": "EUTELSAT QUANTUM",
        "group": "eutelsat",
        "lat": -0.027417555471150955,
        "lon": -118.62958582691451,
        "alt_km": 35773.19468386511,
        "timestamp": "2025-12-09T07:41:32.875042+00:00",
        "meta_object_name": "EUTELSAT QUANTUM",
        "meta_object_id": "2021-069B",
        "meta_epoch": "2025-12-08T22:01:38.706240",
        "meta_mean_motion": 1.00269257,
        "meta_eccentricity": 0.00037286,
        "meta_inclination": 0.0122,
        "meta_ra_of_asc_node": 10.7312,
        "meta_arg_of_pericenter": 261.56,
        "meta_mean_anomaly": 183.7356,
        "meta_ephemeris_type": 0,
        "meta_classification_type": "U",
        "meta_norad_cat_id": 49056,
        "meta_element_set_no": 999,
        "meta_rev_at_epoch": 1602,
        "meta_bstar": 0,
        "meta_mean_motion_dot": 1.28e-06,
        "meta_mean_motion_ddot": 0,
        "tle_line1": "1 49056U 21069B   25342.91780910  .00000128  00000+0  00000+0 0  9992",
        "tle_line2": "2 49056   0.0122  10.7312 0003728 261.5600 183.7356  1.00269257 16029"
      },
      "geometry": {
        "type": "Point",
        "coordinates": [
          -118.62958582691451,
          -0.027417555471150955
        ]
      }
    },
    {
      "type": "Feature",
      "properties": {
        "norad_id": 53765,
        "name": "EUTELSAT KONNECT VHTS",
        "group": "eutelsat",
        "lat": 0.04726253872971648,
        "lon": -163.61672709627916,
        "alt_km": 35778.14079819549,
        "timestamp": "2025-12-09T07:41:32.875053+00:00",
        "meta_object_name": "EUTELSAT KONNECT VHTS",
        "meta_object_id": "2022-110A",
        "meta_epoch": "2025-12-08T22:10:37.222752",
        "meta_mean_motion": 1.00270612,
        "meta_eccentricity": 0.00026288,
        "meta_inclination": 0.0628,
        "meta_ra_of_asc_node": 103.3436,
        "meta_arg_of_pericenter": 135.0105,
        "meta_mean_anomaly": 174.9318,
        "meta_ephemeris_type": 0,
        "meta_classification_type": "U",
        "meta_norad_cat_id": 53765,
        "meta_element_set_no": 999,
        "meta_rev_at_epoch": 491,
        "meta_bstar": 0,
        "meta_mean_motion_dot": 1.9e-07,
        "meta_mean_motion_ddot": 0,
        "tle_line1": "1 53765U 22110A   25342.92404193  .00000019  00000+0  00000+0 0  9998",
        "tle_line2": "2 53765   0.0628 103.3436 0002628 135.0105 174.9318  1.00270612  4913"
      },
      "geometry": {
        "type": "Point",
        "coordinates": [
          -163.61672709627916,
          0.04726253872971648
        ]
      }
    },
    {
      "type": "Feature",
      "properties": {
        "norad_id": 54048,
        "name": "EUTELSAT HOTBIRD 13F",
        "group": "eutelsat",
        "lat": -0.06017152292088753,
        "lon": -153.2998541201709,
        "alt_km": 35793.33015636915,
        "timestamp": "2025-12-09T07:41:32.875065+00:00",
        "meta_object_name": "EUTELSAT HOTBIRD 13F",
        "meta_object_id": "2022-134A",
        "meta_epoch": "2025-12-08T15:22:42.049344",
        "meta_mean_motion": 1.00271424,
        "meta_eccentricity": 0.0002045,
        "meta_inclination": 0.0486,
        "meta_ra_of_asc_node": 292.2851,
        "meta_arg_of_pericenter": 61.4058,
        "meta_mean_anomaly": 327.6443,
        "meta_ephemeris_type": 0,
        "meta_classification_type": "U",
        "meta_norad_cat_id": 54048,
        "meta_element_set_no": 999,
        "meta_rev_at_epoch": 1146,
        "meta_bstar": 0,
        "meta_mean_motion_dot": 8.9e-07,
        "meta_mean_motion_ddot": 0,
        "tle_line1": "1 54048U 22134A   25342.64076446  .00000089  00000+0  00000+0 0  9991",
        "tle_line2": "2 54048   0.0486 292.2851 0002045  61.4058 327.6443  1.00271424 11467"
      },
      "geometry": {
        "type": "Point",
        "coordinates": [
          -153.2998541201709,
          -0.06017152292088753
        ]
      }
    },
    {
      "type": "Feature",
      "properties": {
        "norad_id": 54225,
        "name": "EUTELSAT HOTBIRD 13G",
        "group": "eutelsat",
        "lat": -0.03555631218415256,
        "lon": -153.30292808569874,
        "alt_km": 35778.901440645095,
        "timestamp": "2025-12-09T07:41:32.875077+00:00",
        "meta_object_name": "EUTELSAT HOTBIRD 13G",
        "meta_object_id": "2022-146A",
        "meta_epoch": "2025-12-08T15:22:42.049344",
        "meta_mean_motion": 1.00270657,
        "meta_eccentricity": 0.0001883,
        "meta_inclination": 0.0488,
        "meta_ra_of_asc_node": 235.9302,
        "meta_arg_of_pericenter": 310.6832,
        "meta_mean_anomaly": 134.7005,
        "meta_ephemeris_type": 0,
        "meta_classification_type": "U",
        "meta_norad_cat_id": 54225,
        "meta_element_set_no": 999,
        "meta_rev_at_epoch": 555,
        "meta_bstar": 0,
        "meta_mean_motion_dot": 8.9e-07,
        "meta_mean_motion_ddot": 0,
        "tle_line1": "1 54225U 22146A   25342.64076446  .00000089  00000+0  00000+0 0  9991",
        "tle_line2": "2 54225   0.0488 235.9302 0001883 310.6832 134.7005  1.00270657  5550"
      },
      "geometry": {
        "type": "Point",
        "coordinates": [
          -153.30292808569874,
          -0.03555631218415256
        ]
      }
    }
  ]
}